ONEWEB-0379             
1 49305U 21090AC  24200.65717474 -.00000178  00000+0 -51357-3 0  9993
2 49305  87.8941  68.6676 0001889  78.1166 282.0176 13.14502320135796
ONEWEB-0380             
1 49306U 21090AD  24200.68500446 -.00000002  00000+0 -36971-4 0  9998
2 49306  87.9136  83.9632 0001814  78.2082 281.9254 13.19723616134299
ONEWEB-0381             
1 49307U 21090AE  24200.68071101  .00000083  00000+0  17100-3 0  9999
2 49307  87.9187  53.4031 0001816  88.4095 271.7246 13.20773190137622
ONEWEB-0382             
1 49308U 21090AF  24200.66808209  .00000019  00000+0  15558-4 0  9990
2 49308  87.9186  53.4023 0002251  88.7930 271.3462 13.20770696137611
ONEWEB-0383             
1 49309U 21090AG  24200.72694563 -.00000055  00000+0 -18349-3 0  9996
2 49309  87.8938  68.6411 0002034  78.5425 281.5933 13.14504286135831
ONEWEB-0384             
1 49310U 21090AH  24200.66492541  .00000005  00000+0 -19918-4 0  9991
2 49310  87.9188  53.4148 0002330  88.4312 271.7088 13.20770836137628
ONEWEB-0385             
1 49311U 21090AJ  24200.66019295  .00000023  00000+0  25375-4 0  9996
2 49311  87.9189  53.4172 0002091  91.6420 268.4953 13.20771391137594
ONEWEB-0386             
1 49312U 21090AK  24200.67754848  .00000086  00000+0  17943-3 0  9998
2 49312  87.9180  53.4063 0002101  86.4859 273.6514 13.20770862137611
